ORBCOMM FM37            
1 33064U 08031E   24319.39979919  .00004095  00000+0  58743-3 0  9990
2 33064  48.4395 283.6129 0005501 172.7110 327.2139 14.78172482882258
ORBCOMM FM40            
1 33065U 08031F   24319.27281859  .00004919  00000+0  67090-3 0  9997
2 33065  48.4414 271.5148 0006876 181.1216 321.0043 14.79972606882304
VESSELSAT 1             
1 37840U 11058C   24319.37475336  .00000569  00000+0  16626-3 0  9997
2 37840  19.9632 313.6383 0013579 344.4425  15.5562 14.11262355675925
ORBCOMM FM109           
1 40086U 14040A   24319.40022952  .00002078  00000+0  48884-3 0  9991
2 40086  47.0032 310.1868 0001872  21.5798 338.5166 14.57559631549728
ORBCOMM FM107           
1 40087U 14040B   24319.43707990  .00002209  00000+0  51805-3 0  9990
2 40087  47.0049 311.0364 0001612 347.2864  12.7980 14.57494740549805
ORBCOMM FM106           
1 40088U 14040C   24319.57403705  .00002838  00000+0  51789-3 0  9992
2 40088  47.0580 149.4067 0017524 153.3332 206.8463 14.68285562552138
ORBCOMM FM111           
1 40089U 14040D   24319.30169118  .00005287  00000+0  64741-3 0  9994
2 40089  47.0045  28.9936 0032649 247.3845 112.3596 14.83970025558281
ORBCOMM FM104           
1 40090U 14040E   24319.40007738  .00001849  00000+0  45393-3 0  9998
2 40090  47.0054 342.2868 0017622 302.9068  57.0121 14.55943131549318
